[
    {
        "Altitude(m)": 607895.7927709796,
        "Argument of Periapsis(deg)": 0.0,
        "Eccentricity": 0.0,
        "Inclination(deg)": 60.0,
        "Latitude(deg)": 40.99827292201321,
        "Longitude(deg)": -129.9112844253791,
        "Mean Anomaly(deg)": 130.9091,
        "RAAN(deg)": 180.0,
        "Satellite Name": "Test1 800",
        "Satellite Number": 800,
        "Semi-Major Axis(m)": 6980739.136638005,
        "Time(s)": 0
    },
    {
        "Altitude(m)": 607795.1054169533,
        "Argument of Periapsis(deg)": 0.00010418945913296404,
        "Eccentricity": 0.0,
        "Inclination(deg)": 60.0,
        "Latitude(deg)": 40.53059647393617,
        "Longitude(deg)": -129.4146922292917,
        "Mean Anomaly(deg)": 131.5292061454618,
        "RAAN(deg)": 179.99957995086024,
        "Satellite Name": "Test1 800",
        "Satellite Number": 800,
        "Semi-Major Axis(m)": 6980739.136638005,
        "Time(s)": 10
    },
    {
        "Altitude(m)": 607694.5936268562,
        "Argument of Periapsis(deg)": 0.0002083789182659281,
        "Eccentricity": 0.0,
        "Inclination(deg)": 60.0,
        "Latitude(deg)": 40.0604100901876,
        "Longitude(deg)": -128.9255408732802,
        "Mean Anomaly(deg)": 132.14931229092363,
        "RAAN(deg)": 179.99915990172053,
        "Satellite Name": "Test1 800",
        "Satellite Number": 800,
        "Semi-Major Axis(m)": 6980739.136638005,
        "Time(s)": 20
    },
    {
        "Altitude(m)": 607594.3210995062,
        "Argument of Periapsis(deg)": 0.00031256837739889213,
        "Eccentricity": 0.0,
        "Inclination(deg)": 60.0,
        "Latitude(deg)": 39.587787344067806,
        "Longitude(deg)": -128.44364475191105,
        "Mean Anomaly(deg)": 132.7694184363855,
        "RAAN(deg)": 179.99873985258077,
        "Satellite Name": "Test1 800",
        "Satellite Number": 800,
        "Semi-Major Axis(m)": 6980739.136638005,
        "Time(s)": 30
    },
    {
        "Altitude(m)": 607494.3516340563,
        "Argument of Periapsis(deg)": 0.0004167578365318562,
        "Eccentricity": 0.0,
        "Inclination(deg)": 60.0,
        "Latitude(deg)": 39.11279956872809,
        "Longitude(deg)": -127.96882129968878,
        "Mean Anomaly(deg)": 133.38952458184733,
        "RAAN(deg)": 179.99831980344103,
        "Satellite Name": "Test1 800",
        "Satellite Number": 800,
        "Semi-Major Axis(m)": 6980739.136638005,
        "Time(s)": 40
    },
    {
        "Altitude(m)": 607394.7490981158,
        "Argument of Periapsis(deg)": 0.0005209472956648203,
        "Eccentricity": 0.0,
        "Inclination(deg)": 60.0,
        "Latitude(deg)": 38.635515930532144,
        "Longitude(deg)": -127.50089201149892,
        "Mean Anomaly(deg)": 134.00963072730917,
        "RAAN(deg)": 179.99789975430127,
        "Satellite Name": "Test1 800",
        "Satellite Number": 800,
        "Semi-Major Axis(m)": 6980739.136638005,
        "Time(s)": 50
    },
    {
        "Altitude(m)": 607295.5773957438,
        "Argument of Periapsis(deg)": 0.0006251367547977843,
        "Eccentricity": 0.0,
        "Inclination(deg)": 60.0,
        "Latitude(deg)": 38.15600350087606,
        "Longitude(deg)": -127.03968193936139,
        "Mean Anomaly(deg)": 134.629736872771,
        "RAAN(deg)": 179.99747970516157,
        "Satellite Name": "Test1 800",
        "Satellite Number": 800,
        "Semi-Major Axis(m)": 6980739.136638005,
        "Time(s)": 60
    },
    {
        "Altitude(m)": 607196.9004353805,
        "Argument of Periapsis(deg)": 0.0007293262139307483,
        "Eccentricity": 0.0,
        "Inclination(deg)": 60.0,
        "Latitude(deg)": 37.67432732640044,
        "Longitude(deg)": -126.5850191794997,
        "Mean Anomaly(deg)": 135.24984301823287,
        "RAAN(deg)": 179.9970596560218,
        "Satellite Name": "Test1 800",
        "Satellite Number": 800,
        "Semi-Major Axis(m)": 6980739.136638005,
        "Time(s)": 70
    },
    {
        "Altitude(m)": 607098.7820977364,
        "Argument of Periapsis(deg)": 0.0008335156730637124,
        "Eccentricity": 0.0,
        "Inclination(deg)": 60.0,
        "Latitude(deg)": 37.19055049754371,
        "Longitude(deg)": -126.1367358636433,
        "Mean Anomaly(deg)": 135.86994916369468,
        "RAAN(deg)": 179.99663960688207,
        "Satellite Name": "Test1 800",
        "Satellite Number": 800,
        "Semi-Major Axis(m)": 6980739.136638005,
        "Time(s)": 80
    },
    {
        "Altitude(m)": 607001.2862036275,
        "Argument of Periapsis(deg)": 0.0009377051321966765,
        "Eccentricity": 0.0,
        "Inclination(deg)": 60.0,
        "Latitude(deg)": 36.70473421539389,
        "Longitude(deg)": -125.69466762978125,
        "Mean Anomaly(deg)": 136.49005530915647,
        "RAAN(deg)": 179.9962195577423,
        "Satellite Name": "Test1 800",
        "Satellite Number": 800,
        "Semi-Major Axis(m)": 6980739.136638005,
        "Time(s)": 90
    },
    {
        "Altitude(m)": 606904.4764817888,
        "Argument of Periapsis(deg)": 0.0010418945913296407,
        "Eccentricity": 0.0,
        "Inclination(deg)": 60.0,
        "Latitude(deg)": 36.216937856811946,
        "Longitude(deg)": -125.2586530861203,
        "Mean Anomaly(deg)": 137.11016145461832,
        "RAAN(deg)": 179.9957995086026,
        "Satellite Name": "Test1 800",
        "Satellite Number": 800,
        "Semi-Major Axis(m)": 6980739.136638005,
        "Time(s)": 100
    },
    {
        "Altitude(m)": 606808.4165366889,
        "Argument of Periapsis(deg)": 0.0011460840504626045,
        "Eccentricity": 0.0,
        "Inclination(deg)": 60.0,
        "Latitude(deg)": 35.727219037812624,
        "Longitude(deg)": -124.82853478193115,
        "Mean Anomaly(deg)": 137.7302676000801,
        "RAAN(deg)": 179.9953794594628,
        "Satellite Name": "Test1 800",
        "Satellite Number": 800,
        "Semi-Major Axis(m)": 6980739.136638005,
        "Time(s)": 110
    },
    {
        "Altitude(m)": 606713.1698163315,
        "Argument of Periapsis(deg)": 0.0012502735095955685,
        "Eccentricity": 0.0,
        "Inclination(deg)": 60.0,
        "Latitude(deg)": 35.235633675189376,
        "Longitude(deg)": -124.40415866027563,
        "Mean Anomaly(deg)": 138.35037374554193,
        "RAAN(deg)": 179.99495941032308,
        "Satellite Name": "Test1 800",
        "Satellite Number": 800,
        "Semi-Major Axis(m)": 6980739.136638005,
        "Time(s)": 120
    },
    {
        "Altitude(m)": 606618.7995800915,
        "Argument of Periapsis(deg)": 0.0013544629687285324,
        "Eccentricity": 0.0,
        "Inclination(deg)": 60.0,
        "Latitude(deg)": 34.742236046386836,
        "Longitude(deg)": -123.98537350616627,
        "Mean Anomaly(deg)": 138.97047989100378,
        "RAAN(deg)": 179.99453936118334,
        "Satellite Name": "Test1 800",
        "Satellite Number": 800,
        "Semi-Major Axis(m)": 6980739.136638005,
        "Time(s)": 130
    },
    {
        "Altitude(m)": 606525.3688665932,
        "Argument of Periapsis(deg)": 0.0014586524278614966,
        "Eccentricity": 0.0,
        "Inclination(deg)": 60.0,
        "Latitude(deg)": 34.24707884762813,
        "Longitude(deg)": -123.57203190364308,
        "Mean Anomaly(deg)": 139.5905860364656,
        "RAAN(deg)": 179.9941193120436,
        "Satellite Name": "Test1 800",
        "Satellite Number": 800,
        "Semi-Major Axis(m)": 6980739.136638005,
        "Time(s)": 140
    },
    {
        "Altitude(m)": 606432.9404616262,
        "Argument of Periapsis(deg)": 0.0015628418869944607,
        "Eccentricity": 0.0,
        "Inclination(deg)": 60.0,
        "Latitude(deg)": 33.750213250307596,
        "Longitude(deg)": -123.16398967658624,
        "Mean Anomaly(deg)": 140.21069218192747,
        "RAAN(deg)": 179.99369926290385,
        "Satellite Name": "Test1 800",
        "Satellite Number": 800,
        "Semi-Major Axis(m)": 6980739.136638005,
        "Time(s)": 150
    },
    {
        "Altitude(m)": 606341.5768661486,
        "Argument of Periapsis(deg)": 0.0016670313461274247,
        "Eccentricity": 0.0,
        "Inclination(deg)": 60.0,
        "Latitude(deg)": 33.25168895566855,
        "Longitude(deg)": -122.76110532664471,
        "Mean Anomaly(deg)": 140.8307983273893,
        "RAAN(deg)": 179.9932792137641,
        "Satellite Name": "Test1 800",
        "Satellite Number": 800,
        "Semi-Major Axis(m)": 6980739.136638005,
        "Time(s)": 160
    },
    {
        "Altitude(m)": 606251.3402643638,
        "Argument of Periapsis(deg)": 0.0017712208052603888,
        "Eccentricity": 0.0,
        "Inclination(deg)": 60.0,
        "Latitude(deg)": 32.7515542477908,
        "Longitude(deg)": -122.36324098161415,
        "Mean Anomaly(deg)": 141.45090447285114,
        "RAAN(deg)": 179.99285916462438,
        "Satellite Name": "Test1 800",
        "Satellite Number": 800,
        "Semi-Major Axis(m)": 6980739.136638005,
        "Time(s)": 170
    },
    {
        "Altitude(m)": 606162.2924918982,
        "Argument of Periapsis(deg)": 0.001875410264393353,
        "Eccentricity": 0.0,
        "Inclination(deg)": 60.0,
        "Latitude(deg)": 32.24985604491139,
        "Longitude(deg)": -121.97026182893747,
        "Mean Anomaly(deg)": 142.07101061831298,
        "RAAN(deg)": 179.99243911548464,
        "Satellite Name": "Test1 800",
        "Satellite Number": 800,
        "Semi-Major Axis(m)": 6980739.136638005,
        "Time(s)": 180
    },
    {
        "Altitude(m)": 606074.4950040958,
        "Argument of Periapsis(deg)": 0.0019795997235263173,
        "Eccentricity": 0.0,
        "Inclination(deg)": 60.0,
        "Latitude(deg)": 31.74663994911005,
        "Longitude(deg)": -121.58203554757675,
        "Mean Anomaly(deg)": 142.69111676377477,
        "RAAN(deg)": 179.99201906634488,
        "Satellite Name": "Test1 800",
        "Satellite Number": 800,
        "Semi-Major Axis(m)": 6980739.136638005,
        "Time(s)": 190
    }
]